CCSDS_OMM_VERS,COMMENT,CREATION_DATE,ORIGINATOR,OBJECT_NAME,OBJECT_ID,CENTER_NAME,REF_FRAME,TIME_SYSTEM,MEAN_ELEMENT_THEORY,EPOCH,MEAN_MOTION,ECCENTRICITY,INCLINATION,RA_OF_ASC_NODE,ARG_OF_PERICENTER,MEAN_ANOMALY,EPHEMERIS_TYPE,CLASSIFICATION_TYPE,NORAD_CAT_ID,ELEMENT_SET_NO,REV_AT_EPOCH,BSTAR,MEAN_MOTION_DOT,MEAN_MOTION_DDOT,SEMIMAJOR_AXIS,PERIOD,APOAPSIS,PERIAPSIS,OBJECT_TYPE,RCS_SIZE,COUNTRY_CODE,LAUNCH_DATE,SITE,DECAY_DATE,FILE,GP_ID,TLE_LINE0,TLE_LINE1,TLE_LINE2,NORAD_KEY,JCAT,DeepCat,Satcat,Piece,Active,Type,Name,LDate,Parent,Owner,State,SDate,ExpandedStatus,DDate,ODate,Period,Perigee,PF,Apogee,AF,Inc,IF,OpOrbit,SATCAT_KEY
3.0,GENERATED VIA SPACE-TRACK.ORG API,2026-05-06T14:46:56,18 SPCS,NUSANTARA SATU,2019-009A,EARTH,TEME,UTC,SGP4,2026-05-06T07:59:38.747040,1.00270718,0.0003708,0.0406,120.1272,339.5933,30.4113,0,U,44048,999,2635,0.00000000000000,-0.00000227,0.0000000000000,42165.031,1436.112,35802.531,35771.261,PAYLOAD,LARGE,INDO,2019-02-22,AFETR,,5177211,322299009,0 NUSANTARA SATU,1 44048U 19009A   26126.33308735 -.00000227  00000-0  00000+0 0  9999,2 44048   0.0406 120.1272 0003708 339.5933  30.4113  1.00270718 26354,44048,S44048,-,44048,2019-009A,A,P,Nusantara Satu,2019 Feb 22,S44050,PSN,ID,2019 Feb 22 0229,In Earth orbit,-,2026 May  5 ,    1436.073 ,   35771, ,   35801, ,  0.04 , ,GEO/S,44048
3.0,GENERATED VIA SPACE-TRACK.ORG API,2026-05-06T14:46:56,18 SPCS,INMARSAT GX5,2019-080B,EARTH,TEME,UTC,SGP4,2026-05-06T08:36:38.744928,1.00275888,0.0002193,0.041,349.7404,52.9736,321.695,0,U,44801,999,636,0.00000000000000,0.00000083,0.0000000000000,42163.582,1436.038,35794.693,35776.2,PAYLOAD,LARGE,IM,2019-11-26,FRGUI,,5177222,322299144,0 INMARSAT GX5,1 44801U 19080B   26126.35878177  .00000083  00000-0  00000+0 0  9998,2 44801   0.0410 349.7404 0002193  52.9736 321.6950  1.00275888  6362,44801,S44801,-,44801,2019-080B,A,P,Inmarsat GX5,2019 Nov 26,S44802,INMRV,UK,2019 Nov 26 2157,In Earth orbit,-,2026 May  5 ,    1436.047 ,   35776, ,   35794, ,  0.04 , ,GEO/S,44801
3.0,GENERATED VIA SPACE-TRACK.ORG API,2026-05-06T14:46:56,18 SPCS,JCSAT 12,2009-044A,EARTH,TEME,UTC,SGP4,2026-05-06T12:03:23.828832,1.00271858,6.39e-05,0.041,83.9,273.0236,180.3513,0,U,35755,999,6119,0.00000000000000,-0.00000320,0.0000000000000,42164.711,1436.096,35789.271,35783.882,PAYLOAD,LARGE,JPN,2009-08-21,FRGUI,,5177084,322295816,0 JCSAT 12,1 35755U 09044A   26126.50235913 -.00000320  00000-0  00000+0 0  9992,2 35755   0.0410  83.9000 0000639 273.0236 180.3513  1.00271858 61193,35755,S35755,-,35755,2009-044A,P,P,JCSAT RA,2009 Aug 21,S35758,SESINTU,US,2009 Aug 21 2235,In Earth orbit,-,2026 May  5 ,    1436.087 ,   35783, ,   35789, ,  0.04 , ,GEO/S,35755
3.0,GENERATED VIA SPACE-TRACK.ORG API,2026-05-06T14:46:56,18 SPCS,KAZSAT 2,2011-035B,EARTH,TEME,UTC,SGP4,2026-05-06T08:25:05.747808,1.00274205,0.0001522,0.0412,268.4988,198.563,329.9462,0,U,37749,999,5297,0.00000000000000,-0.00000190,0.0000000000000,42164.054,1436.062,35792.336,35779.501,PAYLOAD,LARGE,KAZ,2011-07-15,TTMTR,,5177118,322296288,0 KAZSAT 2,1 37749U 11035B   26126.35076097 -.00000190  00000-0  00000+0 0  9994,2 37749   0.0412 268.4988 0001522 198.5630 329.9462  1.00274205 52975,37749,S37749,-,37749,2011-035B,A,P,Kazsat-2,2011 Jul 15,S37751,KAZK,KZ,2011 Jul 16 0840,In Earth orbit,-,2026 May  5 ,    1436.096 ,   35781, ,   35791, ,  0.04 , ,GEO/S,37749
3.0,GENERATED VIA SPACE-TRACK.ORG API,2026-05-06T14:56:52,18 SPCS,CHINASAT 2E,2021-071A,EARTH,TEME,UTC,SGP4,2026-05-06T13:21:08.131968,1.00271561,0.000226,0.0419,41.3995,86.059,35.3117,0,U,49062,999,1762,0.00000000000000,-0.00000284,0.0000000000000,42164.795,1436.1,35796.189,35777.131,PAYLOAD,LARGE,PRC,2021-08-05,XSC,,5177377,322302600,0 CHINASAT 2E,1 49062U 21071A   26126.55634412 -.00000284  00000-0  00000+0 0  9993,2 49062   0.0419  41.3995 0002260  86.0590  35.3117  1.00271561 17625,49062,S49062,-,49062,2021-071A,A,P,Zhongxing 2E,2021 Aug  5,S49063,JHB,CN,2021 Aug  5 1655,In Earth orbit,-,2026 May  5 ,    1436.092 ,   35777, ,   35795, ,  0.04 , ,GEO/S,49062
3.0,GENERATED VIA SPACE-TRACK.ORG API,2026-05-06T14:46:56,18 SPCS,NIMIQ 6,2012-026A,EARTH,TEME,UTC,SGP4,2026-05-06T10:59:44.935008,1.00272033,0.0002828,0.0419,80.8858,326.1185,251.1553,0,U,38342,999,4999,0.00000000000000,-0.00000166,0.0000000000000,42164.662,1436.093,35798.452,35774.603,PAYLOAD,LARGE,CA,2012-05-17,TTMTR,,5177127,322296398,0 NIMIQ 6,1 38342U 12026A   26126.45815897 -.00000166  00000-0  00000+0 0  9998,2 38342   0.0419  80.8858 0002828 326.1185 251.1553  1.00272033 49990,38342,S38342,-,38342,2012-026A,A,P,Nimiq 6,2012 May 17,S38343,TCANL,CA,2012 May 18 0426,In Earth orbit,-,2026 May  5 ,    1436.090 ,   35774, ,   35798, ,  0.04 , ,GEO/S,38342
3.0,GENERATED VIA SPACE-TRACK.ORG API,2026-05-06T14:56:52,18 SPCS,CHINASAT 1E,2022-112A,EARTH,TEME,UTC,SGP4,2026-05-06T11:48:55.219392,1.00271645,0.0001032,0.0425,41.5196,312.5861,128.8864,0,U,53813,999,1343,0.00000000000000,-0.00000142,0.0000000000000,42164.771,1436.099,35790.988,35782.285,PAYLOAD,LARGE,PRC,2022-09-13,WSC,,5177431,322303266,0 CHINASAT 1E,1 53813U 22112A   26126.49230578 -.00000142  00000-0  00000+0 0  9990,2 53813   0.0425  41.5196 0001032 312.5861 128.8864  1.00271645 13435,53813,S53813,-,53813,2022-112A,A,P,Zhongxing 1E,2022 Sep 13,S53814,JHB,CN,2022 Sep 13 1349?,In Earth orbit,-,2026 May  5 ,    1436.096 ,   35781, ,   35791, ,  0.04 , ,GEO/S,53813
3.0,GENERATED VIA SPACE-TRACK.ORG API,2026-05-06T10:08:52,18 SPCS,ASTRA 4A (SIRIUS 4),2007-057A,EARTH,TEME,UTC,SGP4,2026-05-06T04:36:25.843392,1.0027064,0.00024986,0.0427,70.2613,336.1862,251.5348,0,U,32299,999,5122,0.00000000000000,0.00000040,0.0000000000000,42165.053,1436.113,35797.453,35776.383,PAYLOAD,LARGE,SES,2007-11-17,TTMTR,,5176958,322269066,0 ASTRA 4A (SIRIUS 4),1 32299U 07057A   26126.19196578  .00000040  00000-0  00000-0 0  9991,2 32299   0.0427  70.2613 0002499 336.1862 251.5348  1.00270640 51220,32299,S32299,-,32299,2007-057A,A,P      O,Sirius 4,2007 Nov 17,S32301,SESS,S,2007 Nov 18 0752,In Earth orbit,-,2026 May  5 ,    1436.069 ,   35774, ,   35797, ,  0.04 , ,GEO/S,32299
3.0,GENERATED VIA SPACE-TRACK.ORG API,2026-05-06T15:06:46,18 SPCS,CHINASAT 3B,2025-106A,EARTH,TEME,UTC,SGP4,2026-05-06T12:13:27.960096,1.00272179,0.0001994,0.0427,63.7392,13.2456,138.042,0,U,64062,999,364,0.00000000000000,-0.00000037,0.0000000000000,42164.622,1436.091,35794.894,35778.079,PAYLOAD,LARGE,PRC,2025-05-20,WSC,,5177763,322311811,0 CHINASAT 3B,1 64062U 25106A   26126.50935139 -.00000037  00000-0  00000+0 0  9994,2 64062   0.0427  63.7392 0001994  13.2456 138.0420  1.00272179  3647,64062,S64062,-,64062,2025-106A,A,P,Zhongxing 3B,2025 May 20,S64063,JHB,CN,2025 May 20 1214?,In Earth orbit,-,2026 May  5 ,    1436.093 ,   35778, ,   35794, ,  0.04 , ,GEO/S,64062
3.0,GENERATED VIA SPACE-TRACK.ORG API,2026-05-04T19:56:17,18 SPCS,COSMOS 2589,2025-131A,EARTH,TEME,UTC,SGP4,2026-05-04T17:02:22.214976,1.00269464,0.0001265,0.0429,1.3629,140.926,73.8976,0,U,64467,999,312,0.00000000000000,-0.00000283,0.0000000000000,42165.383,1436.13,35792.582,35781.914,PAYLOAD,LARGE,CIS,2025-06-19,PKMTR,,5173038,322100353,0 COSMOS 2589,1 64467U 25131A   26124.70997934 -.00000283  00000-0  00000+0 0  9995,2 64467   0.0429   1.3629 0001265 140.9260  73.8976  1.00269464  3129,64467,S64467,-,64467,2025-131A,A,P,Kosmos-2589,2025 Jun 19,S64468,RESH,RU,2025 Jun 19 1530?,In Earth orbit,-,2026 May  4 ,    1436.130 ,   35781, ,   35792, ,  0.04 , ,GEO/S,64467
3.0,GENERATED VIA SPACE-TRACK.ORG API,2026-05-06T14:46:56,18 SPCS,BADR 7,2015-065B,EARTH,TEME,UTC,SGP4,2026-05-06T11:33:04.238784,1.00269758,0.000217,0.0431,245.9591,329.2571,208.4026,0,U,41029,999,3834,0.00000000000000,0.00000152,0.0000000000000,42165.3,1436.126,35796.315,35778.015,PAYLOAD,LARGE,AB,2015-11-10,FRGUI,,5177165,322297414,0 BADR 7,1 41029U 15065B   26126.48129906  .00000152  00000-0  00000+0 0  9996,2 41029   0.0431 245.9591 0002170 329.2571 208.4026  1.00269758 38348,41029,S41029,-,41029,2015-065B,A,P,Badr 7,2015 Nov 10,S41031,ARAB,I-ARAB,2015 Nov 10 2202,In Earth orbit,-,2026 May  5 ,    1436.070 ,   35776, ,   35795, ,  0.05 , ,GEO/S,41029
3.0,GENERATED VIA SPACE-TRACK.ORG API,2026-05-06T14:56:52,18 SPCS,HOTBIRD 13G,2022-146A,EARTH,TEME,UTC,SGP4,2026-05-06T08:04:07.760352,1.00270031,0.0002082,0.0433,241.5904,294.8284,181.8144,0,U,54225,999,704,0.00000000000000,0.00000095,0.0000000000000,42165.224,1436.122,35795.867,35778.31,PAYLOAD,LARGE,EUTE,2022-11-03,AFETR,,5177449,322304488,0 HOTBIRD 13G,1 54225U 22146A   26126.33620093  .00000095  00000-0  00000+0 0  9999,2 54225   0.0433 241.5904 0002082 294.8284 181.8144  1.00270031  7046,54225,S54225,-,54225,2022-146A,A,P,EUTELSAT HOT BIRD 13G,2022 Nov  3,S54226,EUTSA,F,2022 Nov  3 0558,In Earth orbit,-,2026 May  5 ,    1436.110 ,   35778, ,   35795, ,  0.04 , ,GEO/S,54225
3.0,GENERATED VIA SPACE-TRACK.ORG API,2026-05-06T14:46:56,18 SPCS,BSAT-3C,2011-041B,EARTH,TEME,UTC,SGP4,2026-05-06T11:57:09.429120,1.00271462,2.9e-05,0.0436,62.2174,62.0544,29.3468,0,U,37776,999,5005,0.00000000000000,-0.00000343,0.0000000000000,42164.823,1436.102,35787.91,35785.465,PAYLOAD,LARGE,JPN,2011-08-06,FRGUI,,5177119,322296797,0 BSAT-3C,1 37776U 11041B   26126.49802580 -.00000343  00000-0  00000+0 0  9990,2 37776   0.0436  62.2174 0000290  62.0544  29.3468  1.00271462 50054,37776,S37776,-,37776,2011-041B,A,P,BSAT 3c,2011 Aug  6,S37778,BSAT,J,2011 Aug  7 0030,In Earth orbit,-,2026 May  5 ,    1436.092 ,   35785, ,   35787, ,  0.04 , ,GEO/S,37776
